{
  "type": "FeatureCollection",
  "features": [
    {
      "type": "Feature",
      "properties": {
        "norad_id": 33412,
        "name": "COSMO-SKYMED 3",
        "group": "resource",
        "lat": -65.56905547736677,
        "lon": -136.62918262966633,
        "alt_km": 567.5565003262745,
        "timestamp": "2025-12-21T03:56:50.511302+00:00",
        "meta_object_name": "COSMO-SKYMED 3",
        "meta_object_id": "2008-054A",
        "meta_epoch": "2025-12-20T20:16:06.395808",
        "meta_mean_motion": 15.05426572,
        "meta_eccentricity": 0.0016955,
        "meta_inclination": 97.8465,
        "meta_ra_of_asc_node": 205.3732,
        "meta_arg_of_pericenter": 144.7469,
        "meta_mean_anomaly": 215.4882,
        "meta_ephemeris_type": 0,
        "meta_classification_type": "U",
        "meta_norad_cat_id": 33412,
        "meta_element_set_no": 999,
        "meta_rev_at_epoch": 93009,
        "meta_bstar": 0.00035449,
        "meta_mean_motion_dot": 5.039e-05,
        "meta_mean_motion_ddot": 0,
        "tle_line1": "1 33412U 08054A   25354.84451847  .00005039  00000+0  35449-3 0  9994",
        "tle_line2": "2 33412  97.8465 205.3732 0016955 144.7469 215.4882 15.05426572930095"
      },
      "geometry": {
        "type": "Point",
        "coordinates": [
          -136.62918262966633,
          -65.56905547736677
        ]
      }
    },
    {
      "type": "Feature",
      "properties": {
        "norad_id": 33446,
        "name": "YAOGAN-4",
        "group": "resource",
        "lat": -52.32985529193587,
        "lon": -64.43185522488079,
        "alt_km": 618.8374209913063,
        "timestamp": "2025-12-21T03:56:50.511312+00:00",
        "meta_object_name": "YAOGAN-4",
        "meta_object_id": "2008-061A",
        "meta_epoch": "2025-12-20T07:07:49.061568",
        "meta_mean_motion": 14.82702731,
        "meta_eccentricity": 0.00131175,
        "meta_inclination": 97.9192,
        "meta_ra_of_asc_node": 284.3224,
        "meta_arg_of_pericenter": 296.7402,
        "meta_mean_anomaly": 63.2469,
        "meta_ephemeris_type": 0,
        "meta_classification_type": "U",
        "meta_norad_cat_id": 33446,
        "meta_element_set_no": 999,
        "meta_rev_at_epoch": 91915,
        "meta_bstar": 0.000123707,
        "meta_mean_motion_dot": 9.46e-06,
        "meta_mean_motion_ddot": 0,
        "tle_line1": "1 33446U 08061A   25354.29709562  .00000946  00000+0  12371-3 0  9999",
        "tle_line2": "2 33446  97.9192 284.3224 0013117 296.7402  63.2469 14.82702731919157"
      },
      "geometry": {
        "type": "Point",
        "coordinates": [
          -64.43185522488079,
          -52.32985529193587
        ]
      }
    },
    {
      "type": "Feature",
      "properties": {
        "norad_id": 33492,
        "name": "GOSAT (IBUKI)",
        "group": "resource",
        "lat": -77.36298440742237,
        "lon": -115.64966220642651,
        "alt_km": 676.9248750353663,
        "timestamp": "2025-12-21T03:56:50.511321+00:00",
        "meta_object_name": "GOSAT (IBUKI)",
        "meta_object_id": "2009-002A",
        "meta_epoch": "2025-12-20T18:34:59.716128",
        "meta_mean_motion": 14.67539447,
        "meta_eccentricity": 9.98e-05,
        "meta_inclination": 98.0771,
        "meta_ra_of_asc_node": 103.2659,
        "meta_arg_of_pericenter": 101.683,
        "meta_mean_anomaly": 258.4487,
        "meta_ephemeris_type": 0,
        "meta_classification_type": "U",
        "meta_norad_cat_id": 33492,
        "meta_element_set_no": 999,
        "meta_rev_at_epoch": 90529,
        "meta_bstar": 0.00010741,
        "meta_mean_motion_dot": 5.61e-06,
        "meta_mean_motion_ddot": 0,
        "tle_line1": "1 33492U 09002A   25354.77430227  .00000561  00000+0  10741-3 0  9990",
        "tle_line2": "2 33492  98.0771 103.2659 0000998 101.6830 258.4487 14.67539447905299"
      },
      "geometry": {
        "type": "Point",
        "coordinates": [
          -115.64966220642651,
          -77.36298440742237
        ]
      }
    },
    {
      "type": "Feature",
      "properties": {
        "norad_id": 35681,
        "name": "DEIMOS-1",
        "group": "resource",
        "lat": -22.3081835280022,
        "lon": -27.813103818401057,
        "alt_km": 652.000322503286,
        "timestamp": "2025-12-21T03:56:50.511331+00:00",
        "meta_object_name": "DEIMOS-1",
        "meta_object_id": "2009-041A",
        "meta_epoch": "2025-12-20T20:31:12.406080",
        "meta_mean_motion": 14.7496404,
        "meta_eccentricity": 0.0002593,
        "meta_inclination": 97.7144,
        "meta_ra_of_asc_node": 155.0802,
        "meta_arg_of_pericenter": 66.6697,
        "meta_mean_anomaly": 293.4785,
        "meta_ephemeris_type": 0,
        "meta_classification_type": "U",
        "meta_norad_cat_id": 35681,
        "meta_element_set_no": 999,
        "meta_rev_at_epoch": 88059,
        "meta_bstar": 7.0229e-05,
        "meta_mean_motion_dot": 4.25e-06,
        "meta_mean_motion_ddot": 0,
        "tle_line1": "1 35681U 09041A   25354.85500470  .00000425  00000+0  70229-4 0  9999",
        "tle_line2": "2 35681  97.7144 155.0802 0002593  66.6697 293.4785 14.74964040880594"
      },
      "geometry": {
        "type": "Point",
        "coordinates": [
          -27.813103818401057,
          -22.3081835280022
        ]
      }
    },
    {
      "type": "Feature",
      "properties": {
        "norad_id": 35682,
        "name": "DUBAISAT-1",
        "group": "resource",
        "lat": 52.20411282994224,
        "lon": -43.85924397882963,
        "alt_km": 647.4823744741234,
        "timestamp": "2025-12-21T03:56:50.511341+00:00",
        "meta_object_name": "DUBAISAT-1",
        "meta_object_id": "2009-041B",
        "meta_epoch": "2025-12-20T19:13:48.611712",
        "meta_mean_motion": 14.74624023,
        "meta_eccentricity": 0.0009246,
        "meta_inclination": 97.9798,
        "meta_ra_of_asc_node": 125.3626,
        "meta_arg_of_pericenter": 285.4997,
        "meta_mean_anomaly": 74.519,
        "meta_ephemeris_type": 0,
        "meta_classification_type": "U",
        "meta_norad_cat_id": 35682,
        "meta_element_set_no": 999,
        "meta_rev_at_epoch": 87880,
        "meta_bstar": 0.00013802,
        "meta_mean_motion_dot": 8.7e-06,
        "meta_mean_motion_ddot": 0,
        "tle_line1": "1 35682U 09041B   25354.80125708  .00000870  00000+0  13802-3 0  9999",
        "tle_line2": "2 35682  97.9798 125.3626 0009246 285.4997  74.5190 14.74624023878805"
      },
      "geometry": {
        "type": "Point",
        "coordinates": [
          -43.85924397882963,
          52.20411282994224
        ]
      }
    },
    {
      "type": "Feature",
      "properties": {
        "norad_id": 35931,
        "name": "OCEANSAT-2",
        "group": "resource",
        "lat": -13.399225023183655,
        "lon": 172.93655136709475,
        "alt_km": 911.060455940159,
        "timestamp": "2025-12-21T03:56:50.511351+00:00",
        "meta_object_name": "OCEANSAT-2",
        "meta_object_id": "2009-051A",
        "meta_epoch": "2025-12-20T20:09:49.475808",
        "meta_mean_motion": 13.99623025,
        "meta_eccentricity": 0.0016009,
        "meta_inclination": 98.2217,
        "meta_ra_of_asc_node": 354.6189,
        "meta_arg_of_pericenter": 23.8258,
        "meta_mean_anomaly": 336.3647,
        "meta_ephemeris_type": 0,
        "meta_classification_type": "U",
        "meta_norad_cat_id": 35931,
        "meta_element_set_no": 999,
        "meta_rev_at_epoch": 85438,
        "meta_bstar": -6.2798e-05,
        "meta_mean_motion_dot": -1.29e-06,
        "meta_mean_motion_ddot": 0,
        "tle_line1": "1 35931U 09051A   25354.84015597 -.00000129  00000+0 -62798-4 0  9993",
        "tle_line2": "2 35931  98.2217 354.6189 0016009  23.8258 336.3647 13.99623025854382"
      },
      "geometry": {
        "type": "Point",
        "coordinates": [
          172.93655136709475,
          -13.399225023183655
        ]
      }
    },
    {
      "type": "Feature",
      "properties": {
        "norad_id": 35946,
        "name": "WORLDVIEW-2 (WV-2)",
        "group": "resource",
        "lat": 28.435019982702954,
        "lon": 61.50080781624467,
        "alt_km": 761.4276316009236,
        "timestamp": "2025-12-21T03:56:50.511360+00:00",
        "meta_object_name": "WORLDVIEW-2 (WV-2)",
        "meta_object_id": "2009-055A",
        "meta_epoch": "2025-12-20T19:27:45.788832",
        "meta_mean_motion": 14.37727192,
        "meta_eccentricity": 0.000491,
        "meta_inclination": 98.4779,
        "meta_ra_of_asc_node": 65.7847,
        "meta_arg_of_pericenter": 50.919,
        "meta_mean_anomaly": 309.2433,
        "meta_ephemeris_type": 0,
        "meta_classification_type": "U",
        "meta_norad_cat_id": 35946,
        "meta_element_set_no": 999,
        "meta_rev_at_epoch": 85001,
        "meta_bstar": 5.0314e-05,
        "meta_mean_motion_dot": 1.08e-06,
        "meta_mean_motion_ddot": 0,
        "tle_line1": "1 35946U 09055A   25354.81094663  .00000108  00000+0  50314-4 0  9997",
        "tle_line2": "2 35946  98.4779  65.7847 0004910  50.9190 309.2433 14.37727192850019"
      },
      "geometry": {
        "type": "Point",
        "coordinates": [
          61.50080781624467,
          28.435019982702954
        ]
      }
    }
  ]
}